{
  "norad_id": 45465,
  "name": "AEHF-6 (USA 298)",
  "history": [
    {
      "epoch": "2026-03-28T22:17:05.323776",
      "apogee_km": 35989.75610429646,
      "perigee_km": 35584.17839951821,
      "latitude_deg": -0.0013801378499076974,
      "longitude_deg": -104.36075135995634,
      "semi_major_axis_km": 42165.10425190734,
      "eccentricity": 0.0048094,
      "inclination_deg": 2.7248,
      "raan_deg": 300.1643,
      "arg_perigee_deg": 16.5247,
      "mean_anomaly_deg": 341.6681,
      "mean_motion_rev_day": 1.00270457
    }
  ]
}